STARLINK-31881          
1 59659U 24084F   25210.51917645  .00000053  00000+0  11441-4 0  9992
2 59659  43.0002 218.5523 0001086 272.7126  87.3602 15.27579283 70252
STARLINK-31885          
1 59660U 24084G   25210.72818697  .00000072  00000+0  12144-4 0  9996
2 59660  43.0017 217.5451 0000965 271.3297  88.7444 15.27571820 70313
STARLINK-31880          
1 59661U 24084H   25211.04098671  .00000747  00000+0  36663-4 0  9996
2 59661  43.0009 215.5908 0001422 271.9490  88.1198 15.27571472 70335
STARLINK-31886          
1 59662U 24084J   25210.47517401  .00016877  00000+0  62296-3 0  9991
2 59662  43.0013 222.5447 0000378 258.4797 101.6012 15.27497059 70239
STARLINK-31909          
1 59663U 24084K   25210.51870052  .00000291  00000+0  20090-4 0  9991
2 59663  43.0003 222.0553 0001172 269.1002  90.9715 15.27577099 70214
STARLINK-31910          
1 59664U 24084L   25210.44688251  .00000820  00000+0  39307-4 0  9991
2 59664  43.0005 222.3248 0001215 273.9250  86.1463 15.27576899 70233
STARLINK-31902          
1 59666U 24084N   25210.74440327 -.00001993  00000+0 -62896-4 0  9999
2 59666  43.0024 221.1258 0001121 272.6923  87.3800 15.27583818 70274
STARLINK-31913          
1 59667U 24084P   25210.38326306 -.00000116  00000+0  53239-5 0  9997
2 59667  42.9999 219.2518 0001179 272.0513  88.0203 15.27577004 70267
STARLINK-31866          
1 59668U 24084Q   25210.36318357  .00000252  00000+0  18679-4 0  9991
2 59668  43.0001 215.6213 0001319 267.3700  92.7001 15.27578019 70307
STARLINK-31917          
1 59669U 24084R   25210.53025825 -.00000666  00000+0 -14677-4 0  9991
2 59669  42.9999 222.0914 0001018 269.5476  90.5259 15.27573958 70243
STARLINK-31860          
1 59670U 24084S   25210.72432826  .00001546  00000+0  65707-4 0  9993
2 59670  43.0007 217.5092 0000801 271.5783  88.4977 15.27570884 70299
STARLINK-31854          
1 59671U 24084T   25211.20353932  .00004728  00000+0  18137-3 0  9997
2 59671  43.0000 185.2477 0000725 239.7642 120.3138 15.27551117 70705
STARLINK-31842          
1 59672U 24084U   25210.73204081  .00000119  00000+0  13836-4 0  9997
2 59672  43.0018 217.5687 0001012 268.5165  91.5570 15.27575694 70319
STARLINK-31871          
1 59673U 24084V   25210.71870555  .00000748  00000+0  36707-4 0  9991
2 59673  43.0006 220.9222 0001219 272.2574  87.8138 15.27576956 70270
STARLINK-31875          
1 59674U 24084W   25210.32430298 -.00000368  00000+0 -38444-5 0  9996
2 59674  43.0000 219.6664 0000972 268.2655  91.8086 15.27574100 70254
STARLINK-31877          
1 59675U 24084X   25210.73412643  .00000158  00000+0  15269-4 0  9990
2 59675  43.0003 221.0398 0000845 274.4922  85.5834 15.27574305 70274
STARLINK-31884          
1 59676U 24084Y   25210.72256449  .00000675  00000+0  34056-4 0  9999
2 59676  43.0004 220.9767 0001147 270.0262  90.0458 15.27576646 70272
