[{"OBJECT_NAME":"STARLINK-31881","OBJECT_ID":"2024-084F","EPOCH":"2025-07-29T12:27:36.845280","MEAN_MOTION":15.27579283,"ECCENTRICITY":0.0001086,"INCLINATION":43.0002,"RA_OF_ASC_NODE":218.5523,"ARG_OF_PERICENTER":272.7126,"MEAN_ANOMALY":87.3602,"EPHEMERIS_TYPE":0,"CLASSIFICATION_TYPE":"U","NORAD_CAT_ID":59659,"ELEMENT_SET_NO":999,"REV_AT_EPOCH":7025,"BSTAR":1.1441e-5,"MEAN_MOTION_DOT":5.3e-7,"MEAN_MOTION_DDOT":0},{"OBJECT_NAME":"STARLINK-31885","OBJECT_ID":"2024-084G","EPOCH":"2025-07-29T17:28:35.354208","MEAN_MOTION":15.2757182,"ECCENTRICITY":9.65e-5,"INCLINATION":43.0017,"RA_OF_ASC_NODE":217.5451,"ARG_OF_PERICENTER":271.3297,"MEAN_ANOMALY":88.7444,"EPHEMERIS_TYPE":0,"CLASSIFICATION_TYPE":"U","NORAD_CAT_ID":59660,"ELEMENT_SET_NO":999,"REV_AT_EPOCH":7031,"BSTAR":1.2144e-5,"MEAN_MOTION_DOT":7.2e-7,"MEAN_MOTION_DDOT":0},{"OBJECT_NAME":"STARLINK-31880","OBJECT_ID":"2024-084H","EPOCH":"2025-07-30T00:59:01.251744","MEAN_MOTION":15.27571472,"ECCENTRICITY":0.0001422,"INCLINATION":43.0009,"RA_OF_ASC_NODE":215.5908,"ARG_OF_PERICENTER":271.949,"MEAN_ANOMALY":88.1198,"EPHEMERIS_TYPE":0,"CLASSIFICATION_TYPE":"U","NORAD_CAT_ID":59661,"ELEMENT_SET_NO":999,"REV_AT_EPOCH":7033,"BSTAR":3.6663e-5,"MEAN_MOTION_DOT":7.47e-6,"MEAN_MOTION_DDOT":0},{"OBJECT_NAME":"STARLINK-31886","OBJECT_ID":"2024-084J","EPOCH":"2025-07-29T11:24:15.034464","MEAN_MOTION":15.27497059,"ECCENTRICITY":3.78e-5,"INCLINATION":43.0013,"RA_OF_ASC_NODE":222.5447,"ARG_OF_PERICENTER":258.4797,"MEAN_ANOMALY":101.6012,"EPHEMERIS_TYPE":0,"CLASSIFICATION_TYPE":"U","NORAD_CAT_ID":59662,"ELEMENT_SET_NO":999,"REV_AT_EPOCH":7023,"BSTAR":0.00062296,"MEAN_MOTION_DOT":0.00016877,"MEAN_MOTION_DDOT":0},{"OBJECT_NAME":"STARLINK-31909","OBJECT_ID":"2024-084K","EPOCH":"2025-07-29T12:26:55.724928","MEAN_MOTION":15.27577099,"ECCENTRICITY":0.0001172,"INCLINATION":43.0003,"RA_OF_ASC_NODE":222.0553,"ARG_OF_PERICENTER":269.1002,"MEAN_ANOMALY":90.9715,"EPHEMERIS_TYPE":0,"CLASSIFICATION_TYPE":"U","NORAD_CAT_ID":59663,"ELEMENT_SET_NO":999,"REV_AT_EPOCH":7021,"BSTAR":2.009e-5,"MEAN_MOTION_DOT":2.91e-6,"MEAN_MOTION_DDOT":0},{"OBJECT_NAME":"STARLINK-31910","OBJECT_ID":"2024-084L","EPOCH":"2025-07-29T10:43:30.648864","MEAN_MOTION":15.27576899,"ECCENTRICITY":0.0001215,"INCLINATION":43.0005,"RA_OF_ASC_NODE":222.3248,"ARG_OF_PERICENTER":273.925,"MEAN_ANOMALY":86.1463,"EPHEMERIS_TYPE":0,"CLASSIFICATION_TYPE":"U","NORAD_CAT_ID":59664,"ELEMENT_SET_NO":999,"REV_AT_EPOCH":7023,"BSTAR":3.9307e-5,"MEAN_MOTION_DOT":8.2e-6,"MEAN_MOTION_DDOT":0},{"OBJECT_NAME":"STARLINK-31902","OBJECT_ID":"2024-084N","EPOCH":"2025-07-29T17:51:56.442528","MEAN_MOTION":15.27583818,"ECCENTRICITY":0.0001121,"INCLINATION":43.0024,"RA_OF_ASC_NODE":221.1258,"ARG_OF_PERICENTER":272.6923,"MEAN_ANOMALY":87.38,"EPHEMERIS_TYPE":0,"CLASSIFICATION_TYPE":"U","NORAD_CAT_ID":59666,"ELEMENT_SET_NO":999,"REV_AT_EPOCH":7027,"BSTAR":-6.2896e-5,"MEAN_MOTION_DOT":-1.993e-5,"MEAN_MOTION_DDOT":0},{"OBJECT_NAME":"STARLINK-31913","OBJECT_ID":"2024-084P","EPOCH":"2025-07-29T09:11:53.928384","MEAN_MOTION":15.27577004,"ECCENTRICITY":0.0001179,"INCLINATION":42.9999,"RA_OF_ASC_NODE":219.2518,"ARG_OF_PERICENTER":272.0513,"MEAN_ANOMALY":88.0203,"EPHEMERIS_TYPE":0,"CLASSIFICATION_TYPE":"U","NORAD_CAT_ID":59667,"ELEMENT_SET_NO":999,"REV_AT_EPOCH":7026,"BSTAR":5.3239e-6,"MEAN_MOTION_DOT":-1.16e-6,"MEAN_MOTION_DDOT":0},{"OBJECT_NAME":"STARLINK-31866","OBJECT_ID":"2024-084Q","EPOCH":"2025-07-29T08:42:59.060448","MEAN_MOTION":15.27578019,"ECCENTRICITY":0.0001319,"INCLINATION":43.0001,"RA_OF_ASC_NODE":215.6213,"ARG_OF_PERICENTER":267.37,"MEAN_ANOMALY":92.7001,"EPHEMERIS_TYPE":0,"CLASSIFICATION_TYPE":"U","NORAD_CAT_ID":59668,"ELEMENT_SET_NO":999,"REV_AT_EPOCH":7030,"BSTAR":1.8679e-5,"MEAN_MOTION_DOT":2.52e-6,"MEAN_MOTION_DDOT":0},{"OBJECT_NAME":"STARLINK-31917","OBJECT_ID":"2024-084R","EPOCH":"2025-07-29T12:43:34.312800","MEAN_MOTION":15.27573958,"ECCENTRICITY":0.0001018,"INCLINATION":42.9999,"RA_OF_ASC_NODE":222.0914,"ARG_OF_PERICENTER":269.5476,"MEAN_ANOMALY":90.5259,"EPHEMERIS_TYPE":0,"CLASSIFICATION_TYPE":"U","NORAD_CAT_ID":59669,"ELEMENT_SET_NO":999,"REV_AT_EPOCH":7024,"BSTAR":-1.4677e-5,"MEAN_MOTION_DOT":-6.66e-6,"MEAN_MOTION_DDOT":0},{"OBJECT_NAME":"STARLINK-31860","OBJECT_ID":"2024-084S","EPOCH":"2025-07-29T17:23:01.961664","MEAN_MOTION":15.27570884,"ECCENTRICITY":8.01e-5,"INCLINATION":43.0007,"RA_OF_ASC_NODE":217.5092,"ARG_OF_PERICENTER":271.5783,"MEAN_ANOMALY":88.4977,"EPHEMERIS_TYPE":0,"CLASSIFICATION_TYPE":"U","NORAD_CAT_ID":59670,"ELEMENT_SET_NO":999,"REV_AT_EPOCH":7029,"BSTAR":6.5707e-5,"MEAN_MOTION_DOT":1.546e-5,"MEAN_MOTION_DDOT":0},{"OBJECT_NAME":"STARLINK-31854","OBJECT_ID":"2024-084T","EPOCH":"2025-07-30T04:53:05.797248","MEAN_MOTION":15.27551117,"ECCENTRICITY":7.25e-5,"INCLINATION":43,"RA_OF_ASC_NODE":185.2477,"ARG_OF_PERICENTER":239.7642,"MEAN_ANOMALY":120.3138,"EPHEMERIS_TYPE":0,"CLASSIFICATION_TYPE":"U","NORAD_CAT_ID":59671,"ELEMENT_SET_NO":999,"REV_AT_EPOCH":7070,"BSTAR":0.00018137,"MEAN_MOTION_DOT":4.728e-5,"MEAN_MOTION_DDOT":0},{"OBJECT_NAME":"STARLINK-31842","OBJECT_ID":"2024-084U","EPOCH":"2025-07-29T17:34:08.325984","MEAN_MOTION":15.27575694,"ECCENTRICITY":0.0001012,"INCLINATION":43.0018,"RA_OF_ASC_NODE":217.5687,"ARG_OF_PERICENTER":268.5165,"MEAN_ANOMALY":91.557,"EPHEMERIS_TYPE":0,"CLASSIFICATION_TYPE":"U","NORAD_CAT_ID":59672,"ELEMENT_SET_NO":999,"REV_AT_EPOCH":7031,"BSTAR":1.3836e-5,"MEAN_MOTION_DOT":1.19e-6,"MEAN_MOTION_DDOT":0},{"OBJECT_NAME":"STARLINK-31871","OBJECT_ID":"2024-084V","EPOCH":"2025-07-29T17:14:56.159520","MEAN_MOTION":15.27576956,"ECCENTRICITY":0.0001219,"INCLINATION":43.0006,"RA_OF_ASC_NODE":220.9222,"ARG_OF_PERICENTER":272.2574,"MEAN_ANOMALY":87.8138,"EPHEMERIS_TYPE":0,"CLASSIFICATION_TYPE":"U","NORAD_CAT_ID":59673,"ELEMENT_SET_NO":999,"REV_AT_EPOCH":7027,"BSTAR":3.6707e-5,"MEAN_MOTION_DOT":7.48e-6,"MEAN_MOTION_DDOT":0},{"OBJECT_NAME":"STARLINK-31875","OBJECT_ID":"2024-084W","EPOCH":"2025-07-29T07:46:59.777472","MEAN_MOTION":15.275741,"ECCENTRICITY":9.72e-5,"INCLINATION":43,"RA_OF_ASC_NODE":219.6664,"ARG_OF_PERICENTER":268.2655,"MEAN_ANOMALY":91.8086,"EPHEMERIS_TYPE":0,"CLASSIFICATION_TYPE":"U","NORAD_CAT_ID":59674,"ELEMENT_SET_NO":999,"REV_AT_EPOCH":7025,"BSTAR":-3.8444e-6,"MEAN_MOTION_DOT":-3.68e-6,"MEAN_MOTION_DDOT":0},{"OBJECT_NAME":"STARLINK-31877","OBJECT_ID":"2024-084X","EPOCH":"2025-07-29T17:37:08.523552","MEAN_MOTION":15.27574305,"ECCENTRICITY":8.45e-5,"INCLINATION":43.0003,"RA_OF_ASC_NODE":221.0398,"ARG_OF_PERICENTER":274.4922,"MEAN_ANOMALY":85.5834,"EPHEMERIS_TYPE":0,"CLASSIFICATION_TYPE":"U","NORAD_CAT_ID":59675,"ELEMENT_SET_NO":999,"REV_AT_EPOCH":7027,"BSTAR":1.5269e-5,"MEAN_MOTION_DOT":1.58e-6,"MEAN_MOTION_DDOT":0},{"OBJECT_NAME":"STARLINK-31884","OBJECT_ID":"2024-084Y","EPOCH":"2025-07-29T17:20:29.571936","MEAN_MOTION":15.27576646,"ECCENTRICITY":0.0001147,"INCLINATION":43.0004,"RA_OF_ASC_NODE":220.9767,"ARG_OF_PERICENTER":270.0262,"MEAN_ANOMALY":90.0458,"EPHEMERIS_TYPE":0,"CLASSIFICATION_TYPE":"U","NORAD_CAT_ID":59676,"ELEMENT_SET_NO":999,"REV_AT_EPOCH":7027,"BSTAR":3.4056e-5,"MEAN_MOTION_DOT":6.75e-6,"MEAN_MOTION_DDOT":0}]
